{"type":"FeatureCollection","features":[{"type":"Feature","properties":{"cell":"r0c0","row":0,"col":0,"in_watershed":false},"geometry":{"type":"Polygon","coordinates":[[[37.0078,11.085016],[37.198231,11.085016],[37.198231,11.26234],[37.0078,11.26234],[37.0078,11.085016]]]}},{"type":"Feature","properties":{"cell":"r0c1","row":0,"col":1,"in_watershed":false},"geometry":{"type":"Polygon","coordinates":[[[37.198231,11.085016],[37.388663,11.085016],[37.388663,11.26234],[37.198231,11.26234],[37.198231,11.085016]]]}},{"type":"Feature","properties":{"cell":"r0c2","row":0,"col":2,"in_watershed":false},"geometry":{"type":"Polygon","coordinates":[[[37.388663,11.085016],[37.579094,11.085016],[37.579094,11.26234],[37.388663,11.26234],[37.388663,11.085016]]]}},{"type":"Feature","properties":{"cell":"r0c3","row":0,"col":3,"in_watershed":true},"geometry":{"type":"Polygon","coordinates":[[[37.579094,11.085016],[37.769525,11.085016],[37.769525,11.26234],[37.579094,11.26234],[37.579094,11.085016]]]}},{"type":"Feature","properties":{"cell":"r0c4","row":0,"col":4,"in_watershed":true},"geometry":{"type":"Polygon","coordinates":[[[37.769525,11.085016],[37.959956,11.085016],[37.959956,11.26234],[37.769525,11.26234],[37.769525,11.085016]]]}},{"type":"Feature","properties":{"cell":"r0c5","row":0,"col":5,"in_watershed":false},"geometry":{"type":"Polygon","coordinates":[[[37.959956,11.085016],[38.150388,11.085016],[38.150388,11.26234],[37.959956,11.26234],[37.959956,11.085016]]]}},{"type":"Feature","properties":{"cell":"r0c6","row":0,"col":6,"in_watershed":false},"geometry":{"type":"Polygon","coordinates":[[[38.150388,11.085016],[38.340819,11.085016],[38.340819,11.26234],[38.150388,11.26234],[38.150388,11.085016]]]}},{"type":"Feature","properties":{"cell":"r0c7","row":0,"col":7,"in_watershed":false},"geometry":{"type":"Polygon","coordinates":[[[38.340819,11.085016],[38.53125,11.085016],[38.53125,11.26234],[38.340819,11.26234],[38.340819,11.085016]]]}},{"type":"Feature","properties":{"cell":"r1c0","row":1,"col":0,"in_watershed":false},"geometry":{"type":"Polygon","coordinates":[[[37.0078,10.907693],[37.198231,10.907693],[37.198231,11.085016],[37.0078,11.085016],[37.0078,10.907693]]]}},{"type":"Feature","properties":{"cell":"r1c1","row":1,"col":1,"in_watershed":true},"geometry":{"type":"Polygon","coordinates":[[[37.198231,10.907693],[37.388663,10.907693],[37.388663,11.085016],[37.198231,11.085016],[37.198231,10.907693]]]}},{"type":"Feature","properties":{"cell":"r1c2","row":1,"col":2,"in_watershed":true},"geometry":{"type":"Polygon","coordinates":[[[37.388663,10.907693],[37.579094,10.907693],[37.579094,11.085016],[37.388663,11.085016],[37.388663,10.907693]]]}},{"type":"Feature","properties":{"cell":"r1c3","row":1,"col":3,"in_watershed":true},"geometry":{"type":"Polygon","coordinates":[[[37.579094,10.907693],[37.769525,10.907693],[37.769525,11.085016],[37.579094,11.085016],[37.579094,10.907693]]]}},{"type":"Feature","properties":{"cell":"r1c4","row":1,"col":4,"in_watershed":true},"geometry":{"type":"Polygon","coordinates":[[[37.769525,10.907693],[37.959956,10.907693],[37.959956,11.085016],[37.769525,11.085016],[37.769525,10.907693]]]}},{"type":"Feature","properties":{"cell":"r1c5","row":1,"col":5,"in_watershed":true},"geometry":{"type":"Polygon","coordinates":[[[37.959956,10.907693],[38.150388,10.907693],[38.150388,11.085016],[37.959956,11.085016],[37.959956,10.907693]]]}},{"type":"Feature","properties":{"cell":"r1c6","row":1,"col":6,"in_watershed":true},"geometry":{"type":"Polygon","coordinates":[[[38.150388,10.907693],[38.340819,10.907693],[38.340819,11.085016],[38.150388,11.085016],[38.150388,10.907693]]]}},{"type":"Feature","properties":{"cell":"r1c7","row":1,"col":7,"in_watershed":true},"geometry":{"type":"Polygon","coordinates":[[[38.340819,10.907693],[38.53125,10.907693],[38.53125,11.085016],[38.340819,11.085016],[38.340819,10.907693]]]}},{"type":"Feature","properties":{"cell":"r2c0","row":2,"col":0,"in_watershed":true},"geometry":{"type":"Polygon","coordinates":[[[37.0078,10.730369],[37.198231,10.730369],[37.198231,10.907692],[37.0078,10.907692],[37.0078,10.730369]]]}},{"type":"Feature","properties":{"cell":"r2c1","row":2,"col":1,"in_watershed":true},"geometry":{"type":"Polygon","coordinates":[[[37.198231,10.730369],[37.388663,10.730369],[37.388663,10.907692],[37.198231,10.907692],[37.198231,10.730369]]]}},{"type":"Feature","properties":{"cell":"r2c2","row":2,"col":2,"in_watershed":true},"geometry":{"type":"Polygon","coordinates":[[[37.388663,10.730369],[37.579094,10.730369],[37.579094,10.907692],[37.388663,10.907692],[37.388663,10.730369]]]}},{"type":"Feature","properties":{"cell":"r2c3","row":2,"col":3,"in_watershed":true},"geometry":{"type":"Polygon","coordinates":[[[37.579094,10.730369],[37.769525,10.730369],[37.769525,10.907692],[37.579094,10.907692],[37.579094,10.730369]]]}},{"type":"Feature","properties":{"cell":"r2c4","row":2,"col":4,"in_watershed":true},"geometry":{"type":"Polygon","coordinates":[[[37.769525,10.730369],[37.959956,10.730369],[37.959956,10.907692],[37.769525,10.907692],[37.769525,10.730369]]]}},{"type":"Feature","properties":{"cell":"r2c5","row":2,"col":5,"in_watershed":true},"geometry":{"type":"Polygon","coordinates":[[[37.959956,10.730369],[38.150388,10.730369],[38.150388,10.907692],[37.959956,10.907692],[37.959956,10.730369]]]}},{"type":"Feature","properties":{"cell":"r2c6","row":2,"col":6,"in_watershed":true},"geometry":{"type":"Polygon","coordinates":[[[38.150388,10.730369],[38.340819,10.730369],[38.340819,10.907692],[38.150388,10.907692],[38.150388,10.730369]]]}},{"type":"Feature","properties":{"cell":"r2c7","row":2,"col":7,"in_watershed":true},"geometry":{"type":"Polygon","coordinates":[[[38.340819,10.730369],[38.53125,10.730369],[38.53125,10.907692],[38.340819,10.907692],[38.340819,10.730369]]]}},{"type":"Feature","properties":{"cell":"r3c0","row":3,"col":0,"in_watershed":true},"geometry":{"type":"Polygon","coordinates":[[[37.0078,10.553045],[37.198231,10.553045],[37.198231,10.730369],[37.0078,10.730369],[37.0078,10.553045]]]}},{"type":"Feature","properties":{"cell":"r3c1","row":3,"col":1,"in_watershed":true},"geometry":{"type":"Polygon","coordinates":[[[37.198231,10.553045],[37.388663,10.553045],[37.388663,10.730369],[37.198231,10.730369],[37.198231,10.553045]]]}},{"type":"Feature","properties":{"cell":"r3c2","row":3,"col":2,"in_watershed":true},"geometry":{"type":"Polygon","coordinates":[[[37.388663,10.553045],[37.579094,10.553045],[37.579094,10.730369],[37.388663,10.730369],[37.388663,10.553045]]]}},{"type":"Feature","properties":{"cell":"r3c3","row":3,"col":3,"in_watershed":true},"geometry":{"type":"Polygon","coordinates":[[[37.579094,10.553045],[37.769525,10.553045],[37.769525,10.730369],[37.579094,10.730369],[37.579094,10.553045]]]}},{"type":"Feature","properties":{"cell":"r3c4","row":3,"col":4,"in_watershed":true},"geometry":{"type":"Polygon","coordinates":[[[37.769525,10.553045],[37.959956,10.553045],[37.959956,10.730369],[37.769525,10.730369],[37.769525,10.553045]]]}},{"type":"Feature","properties":{"cell":"r3c5","row":3,"col":5,"in_watershed":true},"geometry":{"type":"Polygon","coordinates":[[[37.959956,10.553045],[38.150388,10.553045],[38.150388,10.730369],[37.959956,10.730369],[37.959956,10.553045]]]}},{"type":"Feature","properties":{"cell":"r3c6","row":3,"col":6,"in_watershed":true},"geometry":{"type":"Polygon","coordinates":[[[38.150388,10.553045],[38.340819,10.553045],[38.340819,10.730369],[38.150388,10.730369],[38.150388,10.553045]]]}},{"type":"Feature","properties":{"cell":"r3c7","row":3,"col":7,"in_watershed":true},"geometry":{"type":"Polygon","coordinates":[[[38.340819,10.553045],[38.53125,10.553045],[38.53125,10.730369],[38.340819,10.730369],[38.340819,10.553045]]]}},{"type":"Feature","properties":{"cell":"r4c0","row":4,"col":0,"in_watershed":true},"geometry":{"type":"Polygon","coordinates":[[[37.0078,10.375721],[37.198231,10.375721],[37.198231,10.553045],[37.0078,10.553045],[37.0078,10.375721]]]}},{"type":"Feature","properties":{"cell":"r4c1","row":4,"col":1,"in_watershed":true},"geometry":{"type":"Polygon","coordinates":[[[37.198231,10.375721],[37.388663,10.375721],[37.388663,10.553045],[37.198231,10.553045],[37.198231,10.375721]]]}},{"type":"Feature","properties":{"cell":"r4c2","row":4,"col":2,"in_watershed":true},"geometry":{"type":"Polygon","coordinates":[[[37.388663,10.375721],[37.579094,10.375721],[37.579094,10.553045],[37.388663,10.553045],[37.388663,10.375721]]]}},{"type":"Feature","properties":{"cell":"r4c3","row":4,"col":3,"in_watershed":true},"geometry":{"type":"Polygon","coordinates":[[[37.579094,10.375721],[37.769525,10.375721],[37.769525,10.553045],[37.579094,10.553045],[37.579094,10.375721]]]}},{"type":"Feature","properties":{"cell":"r4c4","row":4,"col":4,"in_watershed":true},"geometry":{"type":"Polygon","coordinates":[[[37.769525,10.375721],[37.959956,10.375721],[37.959956,10.553045],[37.769525,10.553045],[37.769525,10.375721]]]}},{"type":"Feature","properties":{"cell":"r4c5","row":4,"col":5,"in_watershed":true},"geometry":{"type":"Polygon","coordinates":[[[37.959956,10.375721],[38.150388,10.375721],[38.150388,10.553045],[37.959956,10.553045],[37.959956,10.375721]]]}},{"type":"Feature","properties":{"cell":"r4c6","row":4,"col":6,"in_watershed":true},"geometry":{"type":"Polygon","coordinates":[[[38.150388,10.375721],[38.340819,10.375721],[38.340819,10.553045],[38.150388,10.553045],[38.150388,10.375721]]]}},{"type":"Feature","properties":{"cell":"r4c7","row":4,"col":7,"in_watershed":true},"geometry":{"type":"Polygon","coordinates":[[[38.340819,10.375721],[38.53125,10.375721],[38.53125,10.553045],[38.340819,10.553045],[38.340819,10.375721]]]}},{"type":"Feature","properties":{"cell":"r5c0","row":5,"col":0,"in_watershed":true},"geometry":{"type":"Polygon","coordinates":[[[37.0078,10.198398],[37.198231,10.198398],[37.198231,10.375721],[37.0078,10.375721],[37.0078,10.198398]]]}},{"type":"Feature","properties":{"cell":"r5c1","row":5,"col":1,"in_watershed":true},"geometry":{"type":"Polygon","coordinates":[[[37.198231,10.198398],[37.388663,10.198398],[37.388663,10.375721],[37.198231,10.375721],[37.198231,10.198398]]]}},{"type":"Feature","properties":{"cell":"r5c2","row":5,"col":2,"in_watershed":true},"geometry":{"type":"Polygon","coordinates":[[[37.388663,10.198398],[37.579094,10.198398],[37.579094,10.375721],[37.388663,10.375721],[37.388663,10.198398]]]}},{"type":"Feature","properties":{"cell":"r5c3","row":5,"col":3,"in_watershed":true},"geometry":{"type":"Polygon","coordinates":[[[37.579094,10.198398],[37.769525,10.198398],[37.769525,10.375721],[37.579094,10.375721],[37.579094,10.198398]]]}},{"type":"Feature","properties":{"cell":"r5c4","row":5,"col":4,"in_watershed":true},"geometry":{"type":"Polygon","coordinates":[[[37.769525,10.198398],[37.959956,10.198398],[37.959956,10.375721],[37.769525,10.375721],[37.769525,10.198398]]]}},{"type":"Feature","properties":{"cell":"r5c5","row":5,"col":5,"in_watershed":true},"geometry":{"type":"Polygon","coordinates":[[[37.959956,10.198398],[38.150388,10.198398],[38.150388,10.375721],[37.959956,10.375721],[37.959956,10.198398]]]}},{"type":"Feature","properties":{"cell":"r5c6","row":5,"col":6,"in_watershed":true},"geometry":{"type":"Polygon","coordinates":[[[38.150388,10.198398],[38.340819,10.198398],[38.340819,10.375721],[38.150388,10.375721],[38.150388,10.198398]]]}},{"type":"Feature","properties":{"cell":"r5c7","row":5,"col":7,"in_watershed":true},"geometry":{"type":"Polygon","coordinates":[[[38.340819,10.198398],[38.53125,10.198398],[38.53125,10.375721],[38.340819,10.375721],[38.340819,10.198398]]]}},{"type":"Feature","properties":{"cell":"r6c0","row":6,"col":0,"in_watershed":false},"geometry":{"type":"Polygon","coordinates":[[[37.0078,10.021074],[37.198231,10.021074],[37.198231,10.198398],[37.0078,10.198398],[37.0078,10.021074]]]}},{"type":"Feature","properties":{"cell":"r6c1","row":6,"col":1,"in_watershed":true},"geometry":{"type":"Polygon","coordinates":[[[37.198231,10.021074],[37.388663,10.021074],[37.388663,10.198398],[37.198231,10.198398],[37.198231,10.021074]]]}},{"type":"Feature","properties":{"cell":"r6c2","row":6,"col":2,"in_watershed":true},"geometry":{"type":"Polygon","coordinates":[[[37.388663,10.021074],[37.579094,10.021074],[37.579094,10.198398],[37.388663,10.198398],[37.388663,10.021074]]]}},{"type":"Feature","properties":{"cell":"r6c3","row":6,"col":3,"in_watershed":true},"geometry":{"type":"Polygon","coordinates":[[[37.579094,10.021074],[37.769525,10.021074],[37.769525,10.198398],[37.579094,10.198398],[37.579094,10.021074]]]}},{"type":"Feature","properties":{"cell":"r6c4","row":6,"col":4,"in_watershed":true},"geometry":{"type":"Polygon","coordinates":[[[37.769525,10.021074],[37.959956,10.021074],[37.959956,10.198398],[37.769525,10.198398],[37.769525,10.021074]]]}},{"type":"Feature","properties":{"cell":"r6c5","row":6,"col":5,"in_watershed":true},"geometry":{"type":"Polygon","coordinates":[[[37.959956,10.021074],[38.150388,10.021074],[38.150388,10.198398],[37.959956,10.198398],[37.959956,10.021074]]]}},{"type":"Feature","properties":{"cell":"r6c6","row":6,"col":6,"in_watershed":true},"geometry":{"type":"Polygon","coordinates":[[[38.150388,10.021074],[38.340819,10.021074],[38.340819,10.198398],[38.150388,10.198398],[38.150388,10.021074]]]}},{"type":"Feature","properties":{"cell":"r6c7","row":6,"col":7,"in_watershed":false},"geometry":{"type":"Polygon","coordinates":[[[38.340819,10.021074],[38.53125,10.021074],[38.53125,10.198398],[38.340819,10.198398],[38.340819,10.021074]]]}},{"type":"Feature","properties":{"cell":"r7c0","row":7,"col":0,"in_watershed":false},"geometry":{"type":"Polygon","coordinates":[[[37.0078,9.84375],[37.198231,9.84375],[37.198231,10.021074],[37.0078,10.021074],[37.0078,9.84375]]]}},{"type":"Feature","properties":{"cell":"r7c1","row":7,"col":1,"in_watershed":false},"geometry":{"type":"Polygon","coordinates":[[[37.198231,9.84375],[37.388663,9.84375],[37.388663,10.021074],[37.198231,10.021074],[37.198231,9.84375]]]}},{"type":"Feature","properties":{"cell":"r7c2","row":7,"col":2,"in_watershed":false},"geometry":{"type":"Polygon","coordinates":[[[37.388663,9.84375],[37.579094,9.84375],[37.579094,10.021074],[37.388663,10.021074],[37.388663,9.84375]]]}},{"type":"Feature","properties":{"cell":"r7c3","row":7,"col":3,"in_watershed":true},"geometry":{"type":"Polygon","coordinates":[[[37.579094,9.84375],[37.769525,9.84375],[37.769525,10.021074],[37.579094,10.021074],[37.579094,9.84375]]]}},{"type":"Feature","properties":{"cell":"r7c4","row":7,"col":4,"in_watershed":true},"geometry":{"type":"Polygon","coordinates":[[[37.769525,9.84375],[37.959956,9.84375],[37.959956,10.021074],[37.769525,10.021074],[37.769525,9.84375]]]}},{"type":"Feature","properties":{"cell":"r7c5","row":7,"col":5,"in_watershed":false},"geometry":{"type":"Polygon","coordinates":[[[37.959956,9.84375],[38.150388,9.84375],[38.150388,10.021074],[37.959956,10.021074],[37.959956,9.84375]]]}},{"type":"Feature","properties":{"cell":"r7c6","row":7,"col":6,"in_watershed":false},"geometry":{"type":"Polygon","coordinates":[[[38.150388,9.84375],[38.340819,9.84375],[38.340819,10.021074],[38.150388,10.021074],[38.150388,9.84375]]]}},{"type":"Feature","properties":{"cell":"r7c7","row":7,"col":7,"in_watershed":false},"geometry":{"type":"Polygon","coordinates":[[[38.340819,9.84375],[38.53125,9.84375],[38.53125,10.021074],[38.340819,10.021074],[38.340819,9.84375]]]}}]}